CCSDS_OMM_VERS = 2.0
CREATION_DATE  = 
ORIGINATOR     = 

OBJECT_NAME    = STARLINK-35689
OBJECT_ID      = 2025-263K
CENTER_NAME    = EARTH
REF_FRAME      = TEME
TIME_SYSTEM    = UTC
MEAN_ELEMENT_THEORY = SGP/SGP4

EPOCH          = 2025-11-27T04:00:03.000096
MEAN_MOTION    = 15.87413898
ECCENTRICITY   = .0001849
INCLINATION    = 42.9977
RA_OF_ASC_NODE = 218.2466
ARG_OF_PERICENTER = 270.2244
MEAN_ANOMALY   = 6.3542

EPHEMERIS_TYPE = 0
CLASSIFICATION_TYPE = U
NORAD_CAT_ID   = 66494
ELEMENT_SET_NO = 999
REV_AT_EPOCH   = 313
BSTAR          = -.54536E-2
MEAN_MOTION_DOT = -.1313136E-1
MEAN_MOTION_DDOT = 0

CCSDS_OMM_VERS = 2.0
CREATION_DATE  = 
ORIGINATOR     = 

OBJECT_NAME    = STARLINK-35832
OBJECT_ID      = 2025-263L
CENTER_NAME    = EARTH
REF_FRAME      = TEME
TIME_SYSTEM    = UTC
MEAN_ELEMENT_THEORY = SGP/SGP4

EPOCH          = 2025-11-27T04:00:03.000096
MEAN_MOTION    = 15.87400110
ECCENTRICITY   = .0001964
INCLINATION    = 42.9976
RA_OF_ASC_NODE = 218.2185
ARG_OF_PERICENTER = 271.3884
MEAN_ANOMALY   = 16.2738

EPHEMERIS_TYPE = 0
CLASSIFICATION_TYPE = U
NORAD_CAT_ID   = 66495
ELEMENT_SET_NO = 999
REV_AT_EPOCH   = 313
BSTAR          = -.56402E-2
MEAN_MOTION_DOT = -.1351769E-1
MEAN_MOTION_DDOT = 0

CCSDS_OMM_VERS = 2.0
CREATION_DATE  = 
ORIGINATOR     = 

OBJECT_NAME    = STARLINK-35909
OBJECT_ID      = 2025-263M
CENTER_NAME    = EARTH
REF_FRAME      = TEME
TIME_SYSTEM    = UTC
MEAN_ELEMENT_THEORY = SGP/SGP4

EPOCH          = 2025-11-27T04:00:03.000096
MEAN_MOTION    = 15.87378573
ECCENTRICITY   = .0001851
INCLINATION    = 42.9979
RA_OF_ASC_NODE = 218.2110
ARG_OF_PERICENTER = 267.3911
MEAN_ANOMALY   = 23.2859

EPHEMERIS_TYPE = 0
CLASSIFICATION_TYPE = U
NORAD_CAT_ID   = 66496
ELEMENT_SET_NO = 999
REV_AT_EPOCH   = 313
BSTAR          = -.56064E-2
MEAN_MOTION_DOT = -.1343305E-1
MEAN_MOTION_DDOT = 0

CCSDS_OMM_VERS = 2.0
CREATION_DATE  = 
ORIGINATOR     = 

OBJECT_NAME    = STARLINK-35899
OBJECT_ID      = 2025-263N
CENTER_NAME    = EARTH
REF_FRAME      = TEME
TIME_SYSTEM    = UTC
MEAN_ELEMENT_THEORY = SGP/SGP4

EPOCH          = 2025-11-27T04:00:03.000096
MEAN_MOTION    = 15.87384309
ECCENTRICITY   = .0001928
INCLINATION    = 42.9977
RA_OF_ASC_NODE = 218.2040
ARG_OF_PERICENTER = 272.3105
MEAN_ANOMALY   = 21.0378

EPHEMERIS_TYPE = 0
CLASSIFICATION_TYPE = U
NORAD_CAT_ID   = 66497
ELEMENT_SET_NO = 999
REV_AT_EPOCH   = 313
BSTAR          = -.56917E-2
MEAN_MOTION_DOT = -.1361611E-1
MEAN_MOTION_DDOT = 0

CCSDS_OMM_VERS = 2.0
CREATION_DATE  = 
ORIGINATOR     = 

OBJECT_NAME    = STARLINK-35907
OBJECT_ID      = 2025-263P
CENTER_NAME    = EARTH
REF_FRAME      = TEME
TIME_SYSTEM    = UTC
MEAN_ELEMENT_THEORY = SGP/SGP4

EPOCH          = 2025-11-27T04:00:03.000096
MEAN_MOTION    = 15.87378538
ECCENTRICITY   = .0001918
INCLINATION    = 42.9977
RA_OF_ASC_NODE = 218.1971
ARG_OF_PERICENTER = 267.8016
MEAN_ANOMALY   = 28.2950

EPHEMERIS_TYPE = 0
CLASSIFICATION_TYPE = U
NORAD_CAT_ID   = 66498
ELEMENT_SET_NO = 999
REV_AT_EPOCH   = 313
BSTAR          = -.56953E-2
MEAN_MOTION_DOT = -.1362004E-1
MEAN_MOTION_DDOT = 0

CCSDS_OMM_VERS = 2.0
CREATION_DATE  = 
ORIGINATOR     = 

OBJECT_NAME    = STARLINK-35816
OBJECT_ID      = 2025-263Q
CENTER_NAME    = EARTH
REF_FRAME      = TEME
TIME_SYSTEM    = UTC
MEAN_ELEMENT_THEORY = SGP/SGP4

EPOCH          = 2025-11-27T04:00:03.000096
MEAN_MOTION    = 15.87385592
ECCENTRICITY   = .000194
INCLINATION    = 42.9978
RA_OF_ASC_NODE = 218.1845
ARG_OF_PERICENTER = 270.2208
MEAN_ANOMALY   = 30.9037

EPHEMERIS_TYPE = 0
CLASSIFICATION_TYPE = U
NORAD_CAT_ID   = 66499
ELEMENT_SET_NO = 999
REV_AT_EPOCH   = 313
BSTAR          = -.57338E-2
MEAN_MOTION_DOT = -.1370495E-1
MEAN_MOTION_DDOT = 0

CCSDS_OMM_VERS = 2.0
CREATION_DATE  = 
ORIGINATOR     = 

OBJECT_NAME    = STARLINK-35894
OBJECT_ID      = 2025-263R
CENTER_NAME    = EARTH
REF_FRAME      = TEME
TIME_SYSTEM    = UTC
MEAN_ELEMENT_THEORY = SGP/SGP4

EPOCH          = 2025-11-27T04:00:03.000096
MEAN_MOTION    = 15.87391171
ECCENTRICITY   = .0001843
INCLINATION    = 42.9978
RA_OF_ASC_NODE = 218.1913
ARG_OF_PERICENTER = 272.5615
MEAN_ANOMALY   = 25.8787

EPHEMERIS_TYPE = 0
CLASSIFICATION_TYPE = U
NORAD_CAT_ID   = 66500
ELEMENT_SET_NO = 999
REV_AT_EPOCH   = 313
BSTAR          = -.57264E-2
MEAN_MOTION_DOT = -.1369202E-1
MEAN_MOTION_DDOT = 0

CCSDS_OMM_VERS = 2.0
CREATION_DATE  = 
ORIGINATOR     = 

OBJECT_NAME    = STARLINK-35897
OBJECT_ID      = 2025-263S
CENTER_NAME    = EARTH
REF_FRAME      = TEME
TIME_SYSTEM    = UTC
MEAN_ELEMENT_THEORY = SGP/SGP4

EPOCH          = 2025-11-27T04:00:03.000096
MEAN_MOTION    = 15.87391178
ECCENTRICITY   = .0001893
INCLINATION    = 42.9980
RA_OF_ASC_NODE = 218.1777
ARG_OF_PERICENTER = 272.5374
MEAN_ANOMALY   = 31.3049

EPHEMERIS_TYPE = 0
CLASSIFICATION_TYPE = U
NORAD_CAT_ID   = 66501
ELEMENT_SET_NO = 999
REV_AT_EPOCH   = 313
BSTAR          = -.57976E-2
MEAN_MOTION_DOT = -.1384092E-1
MEAN_MOTION_DDOT = 0

CCSDS_OMM_VERS = 2.0
CREATION_DATE  = 
ORIGINATOR     = 

OBJECT_NAME    = STARLINK-35922
OBJECT_ID      = 2025-263T
CENTER_NAME    = EARTH
REF_FRAME      = TEME
TIME_SYSTEM    = UTC
MEAN_ELEMENT_THEORY = SGP/SGP4

EPOCH          = 2025-11-27T04:00:03.000096
MEAN_MOTION    = 15.87383004
ECCENTRICITY   = .0001931
INCLINATION    = 42.9981
RA_OF_ASC_NODE = 218.1563
ARG_OF_PERICENTER = 272.9023
MEAN_ANOMALY   = 39.4900

EPHEMERIS_TYPE = 0
CLASSIFICATION_TYPE = U
NORAD_CAT_ID   = 66502
ELEMENT_SET_NO = 999
REV_AT_EPOCH   = 313
BSTAR          = -.58926E-2
MEAN_MOTION_DOT = -.1403366E-1
MEAN_MOTION_DDOT = 0

CCSDS_OMM_VERS = 2.0
CREATION_DATE  = 
ORIGINATOR     = 

OBJECT_NAME    = STARLINK-35917
OBJECT_ID      = 2025-263U
CENTER_NAME    = EARTH
REF_FRAME      = TEME
TIME_SYSTEM    = UTC
MEAN_ELEMENT_THEORY = SGP/SGP4

EPOCH          = 2025-11-26T22:00:05.999904
MEAN_MOTION    = 15.88218652
ECCENTRICITY   = .00018451
INCLINATION    = 42.9975
RA_OF_ASC_NODE = 219.6859
ARG_OF_PERICENTER = 268.4723
MEAN_ANOMALY   = 59.2795

EPHEMERIS_TYPE = 0
CLASSIFICATION_TYPE = U
NORAD_CAT_ID   = 66503
ELEMENT_SET_NO = 999
REV_AT_EPOCH   = 309
BSTAR          = -.6037894E-2
MEAN_MOTION_DOT = -.151757E-1
MEAN_MOTION_DDOT = 0

CCSDS_OMM_VERS = 2.0
CREATION_DATE  = 
ORIGINATOR     = 

OBJECT_NAME    = STARLINK-35916
OBJECT_ID      = 2025-263V
CENTER_NAME    = EARTH
REF_FRAME      = TEME
TIME_SYSTEM    = UTC
MEAN_ELEMENT_THEORY = SGP/SGP4

EPOCH          = 2025-11-27T04:00:03.000096
MEAN_MOTION    = 15.84938272
ECCENTRICITY   = .0001648
INCLINATION    = 42.9980
RA_OF_ASC_NODE = 218.1497
ARG_OF_PERICENTER = 263.0795
MEAN_ANOMALY   = 51.6573

EPHEMERIS_TYPE = 0
CLASSIFICATION_TYPE = U
NORAD_CAT_ID   = 66504
ELEMENT_SET_NO = 999
REV_AT_EPOCH   = 313
BSTAR          = -.10836E-1
MEAN_MOTION_DOT = -.2232386E-1
MEAN_MOTION_DDOT = 0

CCSDS_OMM_VERS = 2.0
CREATION_DATE  = 
ORIGINATOR     = 

OBJECT_NAME    = STARLINK-34766
OBJECT_ID      = 2025-263W
CENTER_NAME    = EARTH
REF_FRAME      = TEME
TIME_SYSTEM    = UTC
MEAN_ELEMENT_THEORY = SGP/SGP4

EPOCH          = 2025-11-27T04:00:03.000096
MEAN_MOTION    = 15.87370381
ECCENTRICITY   = .0001824
INCLINATION    = 42.9980
RA_OF_ASC_NODE = 218.1693
ARG_OF_PERICENTER = 269.6372
MEAN_ANOMALY   = 37.5038

EPHEMERIS_TYPE = 0
CLASSIFICATION_TYPE = U
NORAD_CAT_ID   = 66505
ELEMENT_SET_NO = 999
REV_AT_EPOCH   = 313
BSTAR          = -.5835E-2
MEAN_MOTION_DOT = -.1390561E-1
MEAN_MOTION_DDOT = 0

