STARLINK-35689          
1 66494U 25263K   25331.16670139 -.01313136  00000+0 -54536-2 0  9998
2 66494  42.9977 218.2466 0001849 270.2244   6.3542 15.87413898  3132
STARLINK-35832          
1 66495U 25263L   25331.16670139 -.01351769  00000+0 -56402-2 0  9997
2 66495  42.9976 218.2185 0001964 271.3884  16.2738 15.87400110  3130
STARLINK-35909          
1 66496U 25263M   25331.16670139 -.01343305  00000+0 -56064-2 0  9999
2 66496  42.9979 218.2110 0001851 267.3911  23.2859 15.87378573  3132
STARLINK-35899          
1 66497U 25263N   25331.16670139 -.01361611  00000+0 -56917-2 0  9997
2 66497  42.9977 218.2040 0001928 272.3105  21.0378 15.87384309  3135
STARLINK-35907          
1 66498U 25263P   25331.16670139 -.01362004  00000+0 -56953-2 0  9995
2 66498  42.9977 218.1971 0001918 267.8016  28.2950 15.87378538  3139
STARLINK-35816          
1 66499U 25263Q   25331.16670139 -.01370495  00000+0 -57338-2 0  9997
2 66499  42.9978 218.1845 0001940 270.2208  30.9037 15.87385592  3131
STARLINK-35894          
1 66500U 25263R   25331.16670139 -.01369202  00000+0 -57264-2 0  9992
2 66500  42.9978 218.1913 0001843 272.5615  25.8787 15.87391171  3134
STARLINK-35897          
1 66501U 25263S   25331.16670139 -.01384092  00000+0 -57976-2 0  9997
2 66501  42.9980 218.1777 0001893 272.5374  31.3049 15.87391178  3133
STARLINK-35922          
1 66502U 25263T   25331.16670139 -.01403366  00000+0 -58926-2 0  9990
2 66502  42.9981 218.1563 0001931 272.9023  39.4900 15.87383004  3130
STARLINK-35917          
1 66503U 25263U   25330.91673611 -.01517570  00000+0 -60379-2 0  9999
2 66503  42.9975 219.6859 0001845 268.4723  59.2795 15.88218652  3093
STARLINK-35916          
1 66504U 25263V   25331.16670139 -.02232386  00000+0 -10836-1 0  9992
2 66504  42.9980 218.1497 0001648 263.0795  51.6573 15.84938272  3131
STARLINK-34766          
1 66505U 25263W   25331.16670139 -.01390561  00000+0 -58350-2 0  9996
2 66505  42.9980 218.1693 0001824 269.6372  37.5038 15.87370381  3132
